[{"OBJECT_NAME":"JILIN-1 GAOFEN 3A","OBJECT_ID":"2019-032C","EPOCH":"2026-03-09T17:53:24.364896","MEAN_MOTION":15.3027131,"ECCENTRICITY":0.00026181,"INCLINATION":44.9746,"RA_OF_ASC_NODE":183.2861,"ARG_OF_PERICENTER":111.29,"MEAN_ANOMALY":248.8263,"EPHEMERIS_TYPE":0,"CLASSIFICATION_TYPE":"U","NORAD_CAT_ID":44312,"ELEMENT_SET_NO":999,"REV_AT_EPOCH":37259,"BSTAR":0.00055381133,"MEAN_MOTION_DOT":0.00016264,"MEAN_MOTION_DDOT":0},{"OBJECT_NAME":"STARLINK-32000","OBJECT_ID":"2024-132M","EPOCH":"2026-03-09T09:30:39.030048","MEAN_MOTION":15.30186778,"ECCENTRICITY":0.00015105,"INCLINATION":53.1611,"RA_OF_ASC_NODE":53.9242,"ARG_OF_PERICENTER":98.3792,"MEAN_ANOMALY":261.738,"EPHEMERIS_TYPE":0,"CLASSIFICATION_TYPE":"U","NORAD_CAT_ID":60289,"ELEMENT_SET_NO":999,"REV_AT_EPOCH":9151,"BSTAR":-1.2344262e-5,"MEAN_MOTION_DOT":-7.25e-6,"MEAN_MOTION_DDOT":0}]
